start=new Date('2022-10-04T00:00:00.000Z').valueOf();
sats=[{"MEAN_ANOMALY":"302.1584","MEAN_MOTION_DDOT":"0.0000000000000","CENTER_NAME":"EARTH","INCLINATION":"53.2191","BSTAR":"0.00010041000000","ARG_OF_PERICENTER":"57.9545","CLASSIFICATION_TYPE":"U","COUNTRY_CODE":"US","ECCENTRICITY":"0.00014150","LAUNCH_DATE":"2022-03-19","MEAN_MOTION_DOT":"0.00001311","NORAD_CAT_ID":"52111","EPOCH":"2022-10-03T19:36:13.824288","TLE_LINE2":"2 52111  53.2191 303.4852 0001415  57.9545 302.1584 15.08859872 31644","OBJECT_ID":"2022-029Z","DECAY_DATE":null,"EPHEMERIS_TYPE":"0","MEAN_ELEMENT_THEORY":"SGP4","OBJECT_TYPE":"PAYLOAD","TLE_LINE1":"1 52111U 22029Z   22276.81682667  .00001311  00000-0  10041-3 0  9993","PERIOD":"95.436","SITE":"AFETR","REV_AT_EPOCH":"3164","ELEMENT_SET_NO":"999","FILE":"3590585","APOAPSIS":"540.664","RA_OF_ASC_NODE":"303.4852","REF_FRAME":"TEME","PERIAPSIS":"538.706","SEMIMAJOR_AXIS":"6917.820","TIME_SYSTEM":"UTC","MEAN_MOTION":"15.08859872","GP_ID":"214120436","OBJECT_NAME":"STARLINK-3708","RCS_SIZE":"LARGE"},{"RCS_SIZE":"LARGE","GP_ID":"214119191","OBJECT_NAME":"STARLINK-3734","MEAN_MOTION":"15.08847194","TIME_SYSTEM":"UTC","SEMIMAJOR_AXIS":"6917.858","PERIAPSIS":"538.345","REF_FRAME":"TEME","RA_OF_ASC_NODE":"304.6337","APOAPSIS":"541.102","FILE":"3590585","ELEMENT_SET_NO":"999","REV_AT_EPOCH":"3160","SITE":"AFETR","PERIOD":"95.437","TLE_LINE1":"1 52112U 22029AA  22276.55923326  .00001540  00000-0  11484-3 0  9991","OBJECT_TYPE":"PAYLOAD","MEAN_ELEMENT_THEORY":"SGP4","EPHEMERIS_TYPE":"0","DECAY_DATE":null,"OBJECT_ID":"2022-029AA","TLE_LINE2":"2 52112  53.2166 304.6337 0001993  44.2386 315.8766 15.08847194 31604","NORAD_CAT_ID":"52112","EPOCH":"2022-10-03T13:25:17.753664","LAUNCH_DATE":"2022-03-19","ECCENTRICITY":"0.00019930","MEAN_MOTION_DOT":"0.00001540","COUNTRY_CODE":"US","CLASSIFICATION_TYPE":"U","ARG_OF_PERICENTER":"44.2386","BSTAR":"0.00011484000000","INCLINATION":"53.2166","CENTER_NAME":"EARTH","MEAN_MOTION_DDOT":"0.0000000000000","MEAN_ANOMALY":"315.8766"},{"EPOCH":"2022-10-03T09:53:19.873248","NORAD_CAT_ID":"52113","TLE_LINE2":"2 52113  53.2187 305.2917 0001906  50.4070 309.7090 15.08852303 31589","OBJECT_ID":"2022-029AB","DECAY_DATE":null,"EPHEMERIS_TYPE":"0","MEAN_ELEMENT_THEORY":"SGP4","OBJECT_TYPE":"PAYLOAD","TLE_LINE1":"1 52113U 22029AB  22276.41203557  .00000235  00000-0  32834-4 0  9997","SITE":"AFETR","PERIOD":"95.437","ELEMENT_SET_NO":"999","REV_AT_EPOCH":"3158","APOAPSIS":"541.026","RA_OF_ASC_NODE":"305.2917","FILE":"3590320","REF_FRAME":"TEME","SEMIMAJOR_AXIS":"6917.843","PERIAPSIS":"538.389","TIME_SYSTEM":"UTC","MEAN_MOTION":"15.08852303","RCS_SIZE":"LARGE","OBJECT_NAME":"STARLINK-3736","GP_ID":"214089429","MEAN_ANOMALY":"309.7090","MEAN_MOTION_DDOT":"0.0000000000000","CENTER_NAME":"EARTH","INCLINATION":"53.2187","BSTAR":"0.00003283400000","ARG_OF_PERICENTER":"50.4070","CLASSIFICATION_TYPE":"U","COUNTRY_CODE":"US","MEAN_MOTION_DOT":"0.00000235","LAUNCH_DATE":"2022-03-19","ECCENTRICITY":"0.00019060"},{"CLASSIFICATION_TYPE":"U","BSTAR":"0.00003123200000","ARG_OF_PERICENTER":"49.1710","COUNTRY_CODE":"US","ECCENTRICITY":"0.00019900","LAUNCH_DATE":"2022-03-19","MEAN_MOTION_DOT":"0.00000209","MEAN_ANOMALY":"310.9455","MEAN_MOTION_DDOT":"0.0000000000000","INCLINATION":"53.2183","CENTER_NAME":"EARTH","REF_FRAME":"TEME","REV_AT_EPOCH":"3160","ELEMENT_SET_NO":"999","FILE":"3590585","APOAPSIS":"541.099","RA_OF_ASC_NODE":"304.6532","MEAN_MOTION":"15.08847545","OBJECT_NAME":"STARLINK-3737","GP_ID":"214120692","RCS_SIZE":"LARGE","PERIAPSIS":"538.346","SEMIMAJOR_AXIS":"6917.857","TIME_SYSTEM":"UTC","OBJECT_ID":"2022-029AC","DECAY_DATE":null,"EPOCH":"2022-10-03T13:19:59.481120","NORAD_CAT_ID":"52114","TLE_LINE2":"2 52114  53.2183 304.6532 0001990  49.1710 310.9455 15.08847545 31605","TLE_LINE1":"1 52114U 22029AC  22276.55554955  .00000209  00000-0  31232-4 0  9996","PERIOD":"95.437","SITE":"AFETR","EPHEMERIS_TYPE":"0","MEAN_ELEMENT_THEORY":"SGP4","OBJECT_TYPE":"PAYLOAD"},{"CENTER_NAME":"EARTH","INCLINATION":"53.2187","MEAN_ANOMALY":"309.5412","MEAN_MOTION_DDOT":"0.0000000000000","COUNTRY_CODE":"US","ECCENTRICITY":"0.00018100","LAUNCH_DATE":"2022-03-19","MEAN_MOTION_DOT":"0.00020961","BSTAR":"0.00133040000000","ARG_OF_PERICENTER":"50.5740","CLASSIFICATION_TYPE":"U","EPHEMERIS_TYPE":"0","MEAN_ELEMENT_THEORY":"SGP4","OBJECT_TYPE":"PAYLOAD","TLE_LINE1":"1 52115U 22029AD  22276.80212693  .00020961  00000-0  13304-2 0  9990","SITE":"AFETR","PERIOD":"95.436","NORAD_CAT_ID":"52115","EPOCH":"2022-10-03T19:15:03.766752","TLE_LINE2":"2 52115  53.2187 303.5517 0001810  50.5740 309.5412 15.08861668 31644","OBJECT_ID":"2022-029AD","DECAY_DATE":null,"SEMIMAJOR_AXIS":"6917.814","PERIAPSIS":"538.427","TIME_SYSTEM":"UTC","MEAN_MOTION":"15.08861668","RCS_SIZE":"LARGE","GP_ID":"214120936","OBJECT_NAME":"STARLINK-3685","ELEMENT_SET_NO":"999","REV_AT_EPOCH":"3164","RA_OF_ASC_NODE":"303.5517","APOAPSIS":"540.931","FILE":"3590585","REF_FRAME":"TEME"},{"MEAN_MOTION":"15.08842080","GP_ID":"214092325","OBJECT_NAME":"STARLINK-3735","RCS_SIZE":"LARGE","PERIAPSIS":"538.479","SEMIMAJOR_AXIS":"6917.874","TIME_SYSTEM":"UTC","REF_FRAME":"TEME","REV_AT_EPOCH":"3157","ELEMENT_SET_NO":"999","FILE":"3590407","APOAPSIS":"540.999","RA_OF_ASC_NODE":"305.5784","TLE_LINE1":"1 52116U 22029AE  22276.34948346  .00000124  00000-0  25864-4 0  9996","PERIOD":"95.437","SITE":"AFETR","EPHEMERIS_TYPE":"0","MEAN_ELEMENT_THEORY":"SGP4","OBJECT_TYPE":"PAYLOAD","OBJECT_ID":"2022-029AE","DECAY_DATE":null,"EPOCH":"2022-10-03T08:23:15.370944","NORAD_CAT_ID":"52116","TLE_LINE2":"2 52116  53.2180 305.5784 0001822  52.4622 307.6536 15.08842080 31574","COUNTRY_CODE":"US","LAUNCH_DATE":"2022-03-19","ECCENTRICITY":"0.00018220","MEAN_MOTION_DOT":"0.00000124","CLASSIFICATION_TYPE":"U","BSTAR":"0.00002586400000","ARG_OF_PERICENTER":"52.4622","INCLINATION":"53.2180","CENTER_NAME":"EARTH","MEAN_ANOMALY":"307.6536","MEAN_MOTION_DDOT":"0.0000000000000"},{"CLASSIFICATION_TYPE":"U","BSTAR":"0.00014987000000","ARG_OF_PERICENTER":"41.6199","COUNTRY_CODE":"US","ECCENTRICITY":"0.00020750","LAUNCH_DATE":"2022-03-19","MEAN_MOTION_DOT":"0.00002099","MEAN_ANOMALY":"318.4950","MEAN_MOTION_DDOT":"0.0000000000000","INCLINATION":"53.2193","CENTER_NAME":"EARTH","REF_FRAME":"TEME","ELEMENT_SET_NO":"999","REV_AT_EPOCH":"3165","RA_OF_ASC_NODE":"303.5814","APOAPSIS":"541.146","FILE":"3590585","MEAN_MOTION":"15.08851358","RCS_SIZE":"LARGE","OBJECT_NAME":"STARLINK-3738","GP_ID":"214119941","SEMIMAJOR_AXIS":"6917.846","PERIAPSIS":"538.275","TIME_SYSTEM":"UTC","OBJECT_ID":"2022-029AF","DECAY_DATE":null,"NORAD_CAT_ID":"52117","EPOCH":"2022-10-03T19:04:26.597856","TLE_LINE2":"2 52117  53.2193 303.5814 0002075  41.6199 318.4950 15.08851358 31658","TLE_LINE1":"1 52117U 22029AF  22276.79475229  .00002099  00000-0  14987-3 0  9997","SITE":"AFETR","PERIOD":"95.437","EPHEMERIS_TYPE":"0","MEAN_ELEMENT_THEORY":"SGP4","OBJECT_TYPE":"PAYLOAD"},{"DECAY_DATE":null,"OBJECT_ID":"2022-029AG","TLE_LINE2":"2 52118  53.2171 303.5249 0002164  47.8562 312.2614 15.08856893 31645","NORAD_CAT_ID":"52118","EPOCH":"2022-10-03T19:20:21.624576","SITE":"AFETR","PERIOD":"95.436","TLE_LINE1":"1 52118U 22029AG  22276.80580584  .00018269  00000-0  11624-2 0  9991","OBJECT_TYPE":"PAYLOAD","MEAN_ELEMENT_THEORY":"SGP4","EPHEMERIS_TYPE":"0","REF_FRAME":"TEME","APOAPSIS":"541.191","RA_OF_ASC_NODE":"303.5249","FILE":"3590585","ELEMENT_SET_NO":"999","REV_AT_EPOCH":"3164","RCS_SIZE":"LARGE","GP_ID":"214120193","OBJECT_NAME":"STARLINK-3743","MEAN_MOTION":"15.08856893","TIME_SYSTEM":"UTC","SEMIMAJOR_AXIS":"6917.829","PERIAPSIS":"538.197","MEAN_MOTION_DDOT":"0.0000000000000","MEAN_ANOMALY":"312.2614","INCLINATION":"53.2171","CENTER_NAME":"EARTH","CLASSIFICATION_TYPE":"U","ARG_OF_PERICENTER":"47.8562","BSTAR":"0.00116240000000","ECCENTRICITY":"0.00021640","LAUNCH_DATE":"2022-03-19","MEAN_MOTION_DOT":"0.00018269","COUNTRY_CODE":"US"},{"TIME_SYSTEM":"UTC","PERIAPSIS":"538.372","SEMIMAJOR_AXIS":"6917.853","GP_ID":"214120437","OBJECT_NAME":"STARLINK-3558","RCS_SIZE":"LARGE","MEAN_MOTION":"15.08848956","FILE":"3590585","RA_OF_ASC_NODE":"303.6124","APOAPSIS":"541.064","REV_AT_EPOCH":"3164","ELEMENT_SET_NO":"999","REF_FRAME":"TEME","MEAN_ELEMENT_THEORY":"SGP4","OBJECT_TYPE":"PAYLOAD","EPHEMERIS_TYPE":"0","PERIOD":"95.437","SITE":"AFETR","TLE_LINE1":"1 52119U 22029AH  22276.78739993  .00000678  00000-0  60712-4 0  9998","TLE_LINE2":"2 52119  53.2193 303.6124 0001946  47.3452 312.7704 15.08848956 31649","NORAD_CAT_ID":"52119","EPOCH":"2022-10-03T18:53:51.353952","DECAY_DATE":null,"OBJECT_ID":"2022-029AH","ECCENTRICITY":"0.00019460","LAUNCH_DATE":"2022-03-19","MEAN_MOTION_DOT":"0.00000678","COUNTRY_CODE":"US","ARG_OF_PERICENTER":"47.3452","BSTAR":"0.00006071200000","CLASSIFICATION_TYPE":"U","CENTER_NAME":"EARTH","INCLINATION":"53.2193","MEAN_MOTION_DDOT":"0.0000000000000","MEAN_ANOMALY":"312.7704"},{"CENTER_NAME":"EARTH","INCLINATION":"53.2172","MEAN_MOTION_DDOT":"0.0000000000000","MEAN_ANOMALY":"314.0362","LAUNCH_DATE":"2022-03-19","MEAN_MOTION_DOT":"0.00011735","ECCENTRICITY":"0.00019780","COUNTRY_CODE":"US","ARG_OF_PERICENTER":"46.0794","BSTAR":"0.00075405000000","CLASSIFICATION_TYPE":"U","MEAN_ELEMENT_THEORY":"SGP4","OBJECT_TYPE":"PAYLOAD","EPHEMERIS_TYPE":"0","PERIOD":"95.437","SITE":"AFETR","TLE_LINE1":"1 52120U 22029AJ  22276.79845209  .00011735  00000-0  75405-3 0  9999","TLE_LINE2":"2 52120  53.2172 303.5614 0001978  46.0794 314.0362 15.08844743 31657","NORAD_CAT_ID":"52120","EPOCH":"2022-10-03T19:09:46.260576","DECAY_DATE":null,"OBJECT_ID":"2022-029AJ","TIME_SYSTEM":"UTC","PERIAPSIS":"538.363","SEMIMAJOR_AXIS":"6917.866","GP_ID":"214119192","OBJECT_NAME":"STARLINK-3534","RCS_SIZE":"LARGE","MEAN_MOTION":"15.08844743","FILE":"3590585","APOAPSIS":"541.099","RA_OF_ASC_NODE":"303.5614","REV_AT_EPOCH":"3165","ELEMENT_SET_NO":"999","REF_FRAME":"TEME"}];
